[{"OBJECT_NAME":"STARLINK-5060","OBJECT_ID":"2023-014Y","EPOCH":"2026-03-09T11:13:05.271168","MEAN_MOTION":14.98333751,"ECCENTRICITY":0.00032563,"INCLINATION":69.999,"RA_OF_ASC_NODE":84.8274,"ARG_OF_PERICENTER":271.199,"MEAN_ANOMALY":88.8796,"EPHEMERIS_TYPE":0,"CLASSIFICATION_TYPE":"U","NORAD_CAT_ID":55413,"ELEMENT_SET_NO":999,"REV_AT_EPOCH":17153,"BSTAR":-7.0163215e-5,"MEAN_MOTION_DOT":-9.3e-6,"MEAN_MOTION_DDOT":0},{"OBJECT_NAME":"SATELIOT_3","OBJECT_ID":"2024-149CN","EPOCH":"2026-03-09T19:09:09.165600","MEAN_MOTION":14.97601684,"ECCENTRICITY":0.00058308,"INCLINATION":97.6866,"RA_OF_ASC_NODE":147.0596,"ARG_OF_PERICENTER":63.3535,"MEAN_ANOMALY":296.8284,"EPHEMERIS_TYPE":0,"CLASSIFICATION_TYPE":"U","NORAD_CAT_ID":60552,"ELEMENT_SET_NO":999,"REV_AT_EPOCH":8520,"BSTAR":0.00025002978,"MEAN_MOTION_DOT":2.865e-5,"MEAN_MOTION_DDOT":0}]
