STARLINK-5060           
1 55413U 23014Y   26068.46742212 -.00000930  00000+0 -70163-4 0  9992
2 55413  69.9990  84.8274 0003256 271.1990  88.8796 14.98333751171537
SATELIOT_3              
1 60552U 24149CN  26068.79802274  .00002865  00000+0  25003-3 0  9992
2 60552  97.6866 147.0596 0005831  63.3535 296.8284 14.97601684 85206
